NORAD_CAT_ID,OBJECT_NAME,OBJECT_TYPE,EPOCH,MEAN_MOTION,ECCENTRICITY,INCLINATION,RA_OF_ASC_NODE,ARG_OF_PERICENTER,MEAN_ANOMALY,BSTAR,MEAN_MOTION_DOT,MEAN_MOTION_DDOT,TLE_LINE0,TLE_LINE1,TLE_LINE2,SEMIMAJOR_AXIS,PERIOD,APOGEE,PERIGEE,DECAYED
53408.0,STARLINK-4491,PAYLOAD,2024-07-01 11:33:58,15.08854159,0.0002245,53.2164,0.3947,78.3022,281.8222,0.00065596,0.00010171,0.0,0 STARLINK-4491,1 53408U 22097W   24183.48192687  .00010171  00000-0  65596-3 0  9997,2 53408  53.2164   0.3947 0002245  78.3022 281.8222 15.08854159105132,6917.837,95.437,541.255,538.149,0.0
53408.0,STARLINK-4491,PAYLOAD,2024-07-01 19:30:54,15.08841981,0.0001024,53.216,358.9077,79.1812,280.9295,0.0012291,0.00019328,0.0,0 STARLINK-4491,1 53408U 22097W   24183.81312533  .00019328  00000-0  12291-2 0  9994,2 53408  53.2160 358.9077 0001024  79.1812 280.9295 15.08841981105188,6917.874,95.437,540.448,539.031,0.0
53408.0,STARLINK-4491,PAYLOAD,2024-07-02 05:03:12,15.08853689,0.0001033,53.216,357.1232,79.637,280.4739,0.0010769,0.00016899,0.0,0 STARLINK-4491,1 53408U 22097W   24184.21056306  .00016899  00000-0  10769-2 0  9990,2 53408  53.2160 357.1232 0001033  79.6370 280.4739 15.08853689105733,6917.839,95.437,540.418,538.989,0.0
53408.0,STARLINK-4491,PAYLOAD,2024-07-02 20:57:04,15.08842033,9.77e-05,53.2161,354.1486,93.1979,266.9125,0.0013743,0.00021653,0.0,0 STARLINK-4491,1 53408U 22097W   24184.87296668  .00021653  00000-0  13743-2 0  9998,2 53408  53.2161 354.1486 0000977  93.1979 266.9125 15.08842033105340,6917.874,95.437,540.415,539.063,0.0
53408.0,STARLINK-4491,PAYLOAD,2024-07-03 11:15:32,15.08842233,0.0001126,53.2168,351.4683,107.8219,252.2896,0.00055224,8.512e-05,0.0,0 STARLINK-4491,1 53408U 22097W   24185.46912761  .00008512  00000-0  55224-3 0  9993,2 53408  53.2168 351.4683 0001126 107.8219 252.2896 15.08842233105438,6917.874,95.437,540.518,538.96,0.0
53408.0,STARLINK-4491,PAYLOAD,2024-07-03 16:01:41,15.08843836,0.000114,53.217,350.5781,104.1216,255.9903,0.00036896,5.59e-05,0.0,0 STARLINK-4491,1 53408U 22097W   24185.66784705  .00005590  00000-0  36896-3 0  9997,2 53408  53.2170 350.5781 0001140 104.1216 255.9903 15.08843836105959,6917.869,95.437,540.522,538.945,0.0
53408.0,STARLINK-4491,PAYLOAD,2024-07-04 14:17:05,15.08843352,0.0001147,53.2176,346.4153,101.8597,258.2523,0.00021752,3.176e-05,0.0,0 STARLINK-4491,1 53408U 22097W   24186.59520744  .00003176  00000-0  21752-3 0  9994,2 53408  53.2176 346.4153 0001147 101.8597 258.2523 15.08843352106098,6917.87,95.437,540.529,538.942,0.0
53408.0,STARLINK-4491,PAYLOAD,2024-07-04 17:27:52,15.08841784,0.000109,53.2177,345.8214,98.427,261.6845,0.00017142,2.442e-05,0.0,0 STARLINK-4491,1 53408U 22097W   24186.72768823  .00002442  00000-0  17142-3 0  9994,2 53408  53.2177 345.8214 0001090  98.4270 261.6845 15.08841784105626,6917.875,95.437,540.494,538.986,0.0
53408.0,STARLINK-4491,PAYLOAD,2024-07-05 14:07:52,15.0884276,0.0001045,53.2182,341.956,96.3126,263.7986,0.00012799,1.75e-05,0.0,0 STARLINK-4491,1 53408U 22097W   24187.58880747  .00001750  00000-0  12799-3 0  9993,2 53408  53.2182 341.9560 0001045  96.3126 263.7986 15.08842760106243,6917.872,95.437,540.46,539.014,0.0
53408.0,STARLINK-4491,PAYLOAD,2024-07-05 17:18:39,15.08843376,0.0001092,53.2186,341.3641,99.1457,260.9659,0.00014232,1.978e-05,0.0,0 STARLINK-4491,1 53408U 22097W   24187.72128731  .00001978  00000-0  14232-3 0  9993,2 53408  53.2186 341.3641 0001092  99.1457 260.9659 15.08843376106263,6917.87,95.437,540.491,538.98,0.0
53408.0,STARLINK-4491,PAYLOAD,2024-07-06 02:50:57,15.08854543,0.0001074,53.2187,339.5796,98.3586,261.7528,0.00029826,4.464e-05,0.0,0 STARLINK-4491,1 53408U 22097W   24188.11872099  .00004464  00000-0  29826-3 0  9998,2 53408  53.2187 339.5796 0001074  98.3586 261.7528 15.08854543105832,6917.836,95.437,540.444,538.958,0.0
53408.0,STARLINK-4491,PAYLOAD,2024-07-06 10:47:54,15.08826418,0.0001188,53.2184,338.0917,92.6151,267.4978,-0.00021513,-3.709e-05,0.0,0 STARLINK-4491,1 53408U 22097W   24188.44993220 -.00003709  00000-0 -21513-3 0  9992,2 53408  53.2184 338.0917 0001188  92.6151 267.4978 15.08826418105886,6917.922,95.438,540.609,538.965,0.0
53408.0,STARLINK-4491,PAYLOAD,2024-07-06 13:58:40,15.0882671,0.000114,53.2181,337.4979,96.9428,263.1694,-0.00010991,-2.036e-05,0.0,0 STARLINK-4491,1 53408U 22097W   24188.58241482 -.00002036  00000-0 -10991-3 0  9993,2 53408  53.2181 337.4979 0001140  96.9428 263.1694 15.08826710106396,6917.921,95.438,540.575,538.997,0.0
53408.0,STARLINK-4491,PAYLOAD,2024-07-06 17:09:26,15.08828982,0.0001144,53.2182,336.9035,98.2254,261.8868,-7.8003e-05,-1.529e-05,0.0,0 STARLINK-4491,1 53408U 22097W   24188.71489420 -.00001529  00000-0 -78003-4 0  9999,2 53408  53.2182 336.9035 0001144  98.2254 261.8868 15.08828982106414,6917.914,95.438,540.57,538.988,0.0
53408.0,STARLINK-4491,PAYLOAD,2024-07-07 02:41:45,15.08838809,0.0001191,53.2186,335.119,94.1909,265.922,8.0054e-05,9.86e-06,0.0,0 STARLINK-4491,1 53408U 22097W   24189.11233112  .00000986  00000-0  80054-4 0  9992,2 53408  53.2186 335.1190 0001191  94.1909 265.9220 15.08838809105982,6917.884,95.438,540.573,538.925,0.0
53408.0,STARLINK-4491,PAYLOAD,2024-07-07 13:49:27,15.08833772,0.0001263,53.2189,333.0374,92.2423,267.8714,3.6894e-06,-2.29e-06,0.0,0 STARLINK-4491,1 53408U 22097W   24189.57601464 -.00000229  00000-0  36894-5 0  9996,2 53408  53.2189 333.0374 0001263  92.2423 267.8714 15.08833772106542,6917.899,95.438,540.638,538.891,0.0
53408.0,STARLINK-4491,PAYLOAD,2024-07-08 13:40:14,15.08838491,0.0001326,53.2184,328.577,92.7325,267.3819,0.00017034,2.424e-05,0.0,0 STARLINK-4491,1 53408U 22097W   24190.56961622  .00002424  00000-0  17034-3 0  9993,2 53408  53.2184 328.5770 0001326  92.7325 267.3819 15.08838491106209,6917.885,95.438,540.667,538.833,0.0
53408.0,STARLINK-4491,PAYLOAD,2024-07-08 15:15:38,15.08834874,0.0001427,53.2182,328.2792,89.9542,270.1614,5.2365e-05,5.45e-06,0.0,0 STARLINK-4491,1 53408U 22097W   24190.63585737  .00000545  00000-0  52365-4 0  9999,2 53408  53.2182 328.2792 0001427  89.9542 270.1614 15.08834874106700,6917.896,95.438,540.748,538.774,0.0
53408.0,STARLINK-4491,PAYLOAD,2024-07-09 02:23:19,15.08850507,0.000132,53.2183,326.197,83.2194,276.8949,0.00030483,4.568e-05,0.0,0 STARLINK-4491,1 53408U 22097W   24191.09953128  .00004568  00000-0  30483-3 0  9998,2 53408  53.2183 326.1970 0001320  83.2194 276.8949 15.08850507106286,6917.848,95.437,540.626,538.8,0.0
53408.0,STARLINK-4491,PAYLOAD,2024-07-09 13:31:01,15.08849206,0.0001154,53.2179,324.1139,105.1924,254.9196,0.00026907,3.998e-05,0.0,0 STARLINK-4491,1 53408U 22097W   24191.56321047  .00003998  00000-0  26907-3 0  9991,2 53408  53.2179 324.1139 0001154 105.1924 254.9196 15.08849206106843,6917.852,95.437,540.516,538.919,0.0
53408.0,STARLINK-4491,PAYLOAD,2024-07-09 15:06:24,15.08847496,0.0001345,53.2179,323.8129,95.0557,265.0589,0.00015575,2.192e-05,0.0,0 STARLINK-4491,1 53408U 22097W   24191.62945051  .00002192  00000-0  15575-3 0  9999,2 53408  53.2179 323.8129 0001345  95.0557 265.0589 15.08847496106364,6917.857,95.437,540.653,538.792,0.0
53408.0,STARLINK-4491,PAYLOAD,2024-07-10 08:35:39,15.08837962,0.0001681,53.2183,320.5468,93.7679,266.3505,2.2485e-05,7e-07,0.0,0 STARLINK-4491,1 53408U 22097W   24192.35809332  .00000070  00000-0  22485-4 0  9993,2 53408  53.2183 320.5468 0001681  93.7679 266.3505 15.08837962106473,6917.887,95.438,540.915,538.589,0.0
53408.0,STARLINK-4491,PAYLOAD,2024-07-10 14:57:11,15.08842861,0.0001566,53.2172,319.357,96.9518,263.1652,8.9709e-05,1.14e-05,0.0,0 STARLINK-4491,1 53408U 22097W   24192.62305098  .00001140  00000-0  89709-4 0  9994,2 53408  53.2172 319.3570 0001566  96.9518 263.1652 15.08842861107002,6917.872,95.437,540.82,538.653,0.0
53408.0,STARLINK-4491,PAYLOAD,2024-07-11 13:12:35,15.08845692,0.0001303,53.216,315.194,100.5102,259.6037,0.00058478,9.033e-05,0.0,0 STARLINK-4491,1 53408U 22097W   24193.55041358  .00009033  00000-0  58478-3 0  9990,2 53408  53.2160 315.1940 0001303 100.5102 259.6037 15.08845692107141,6917.863,95.437,540.629,538.827,0.0
53408.0,STARLINK-4491,PAYLOAD,2024-07-11 14:47:58,15.08847502,0.0001106,53.2174,314.8973,102.5494,257.5622,0.00070183,0.00010902,0.0,0 STARLINK-4491,1 53408U 22097W   24193.61665362  .00010902  00000-0  70183-3 0  9998,2 53408  53.2174 314.8973 0001106 102.5494 257.5622 15.08847502106660,6917.857,95.437,540.488,538.957,0.0
53408.0,STARLINK-4491,PAYLOAD,2024-07-12 13:03:23,15.08836009,0.0001255,53.2171,310.7289,88.7084,271.4052,0.00013988,1.939e-05,0.0,0 STARLINK-4491,1 53408U 22097W   24194.54401785  .00001939  00000-0  13988-3 0  9998,2 53408  53.2171 310.7289 0001255  88.7084 271.4052 15.08836009106805,6917.893,95.438,540.626,538.889,0.0
53408.0,STARLINK-4491,PAYLOAD,2024-07-12 14:38:46,15.08827519,0.0001229,53.2176,310.4374,91.7155,268.3978,0.00032342,4.861e-05,0.0,0 STARLINK-4491,1 53408U 22097W   24194.61026424  .00004861  00000-0  32342-3 0  9991,2 53408  53.2176 310.4374 0001229  91.7155 268.3978 15.08827519107300,6917.919,95.438,540.634,538.933,0.0
53408.0,STARLINK-4491,PAYLOAD,2024-07-13 00:11:04,15.08846488,0.0001373,53.2192,308.6509,92.9713,267.1437,0.00021548,3.144e-05,0.0,0 STARLINK-4491,1 53408U 22097W   24195.00769290  .00003144  00000-0  21548-3 0  9999,2 53408  53.2192 308.6509 0001373  92.9713 267.1437 15.08846488106874,6917.861,95.437,540.675,538.776,0.0
53408.0,STARLINK-4491,PAYLOAD,2024-07-13 12:54:10,15.08835229,0.0001877,53.219,306.2801,122.4105,237.7069,3.4062e-05,2.54e-06,0.0,0 STARLINK-4491,1 53408U 22097W   24195.53762046  .00000254  00000-0  34062-4 0  9994,2 53408  53.2190 306.2801 0001877 122.4105 237.7069 15.08835229106958,6917.895,95.438,541.058,538.461,0.0
53408.0,STARLINK-4491,PAYLOAD,2024-07-13 14:29:33,15.08835444,0.0001528,53.2182,305.9812,107.5716,252.5444,4.1285e-05,3.69e-06,0.0,0 STARLINK-4491,1 53408U 22097W   24195.60386104  .00000369  00000-0  41285-4 0  9991,2 53408  53.2182 305.9812 0001528 107.5716 252.5444 15.08835444107459,6917.894,95.438,540.816,538.702,0.0
